INTELSAT 902 (IS-902)   
1 26900U 01039A   26101.36809639 -.00000277  00000+0  00000+0 0  9999
2 26900   5.9502  72.5827 0004477 305.8866 263.5304  1.00270744 90028
INTELSAT 904 (IS-904)   
1 27380U 02007A   26101.40619924 -.00000219  00000+0  00000+0 0  9995
2 27380   6.7532  69.9710 0007601 331.6049 272.8155  1.00271207 51092
DIRECTV 5 (TEMPO 1)     
1 27426U 02023A   26101.49885064 -.00000052  00000+0  00000+0 0  9998
2 27426   4.7070  76.1228 0003524 311.6631 241.4213  1.00272230 87450
INTELSAT 905 (IS-905)   
1 27438U 02027A   26101.49356395  .00000100  00000+0  00000+0 0  9998
2 27438   6.5860  70.5879 0003169 323.6511 205.9520  1.00271800 50699
GALAXY 3C (G-3C)        
1 27445U 02030A   26101.50188397 -.00000148  00000+0  00000+0 0  9990
2 27445   3.5570  78.8851 0001718  23.8562 182.8028  1.00271638 45820
INTELSAT 906 (IS-906)   
1 27513U 02041A   26101.53334411  .00000019  00000+0  00000+0 0  9997
2 27513   5.6350  73.7251 0003610 318.4445  63.7210  1.00271231 86362
GALAXY 13 (HORIZONS-1)  
1 27954U 03044A   26101.45530931  .00000135  00000+0  00000+0 0  9995
2 27954   1.2469  84.6698 0002177 296.1895 192.7062  1.00272389 45906
INTELSAT 10-02          
1 28358U 04022A   26101.37788977 -.00000010  00000+0  00000+0 0  9990
2 28358   0.0457  54.5643 0001998  27.3710 252.7053  1.00271172 79885
DIRECTV 8               
1 28659U 05019A   26101.49711728  .00000000  00000+0  00000+0 0  9992
2 28659   0.0189 193.7348 0003230 198.8255 227.0703  1.00270420 76405
GALAXY 28 (G-28)        
1 28702U 05022A   26101.37268975 -.00000196  00000+0  00000+0 0  9990
2 28702   3.1272  79.7393 0002757 299.1483 287.7663  1.00270402 51305
GALAXY 16 (G-16)        
1 29236U 06023A   26101.50110397 -.00000125  00000+0  00000+0 0  9996
2 29236   0.0151 197.1723 0002926 199.6103 244.3274  1.00271460 72308
DIRECTV 9S              
1 29494U 06043A   26101.50067065 -.00000110  00000+0  00000+0 0  9991
2 29494   2.2477  81.6806 0003950 316.8973 240.1917  1.00272066 50716
GALAXY 17 (G-17)        
1 31307U 07016B   26101.50387733 -.00000202  00000+0  00000+0 0  9997
2 31307   2.8025  80.7143 0004130 316.1384 259.2684  1.00271574 69132
INTELSAT 11 (IS-11)     
1 32253U 07044B   26101.53230411  .00000090  00000+0  00000+0 0  9996
2 32253   3.3910  79.4575 0002250 223.2376 147.5459  0.99047808 67793
HORIZONS-2              
1 32388U 07063B   26101.50604399 -.00000250  00000+0  00000+0 0  9992
2 32388   2.4293  81.4230 0003167 312.1981 274.4939  1.00273254 67146
DIRECTV 11              
1 32729U 08013A   26101.07325520 -.00000124  00000+0  00000+0 0  9995
2 32729   0.0129  79.0601 0000342 310.2466  97.1821  1.00272503 44928
GALAXY 18 (G-18)        
1 32951U 08024A   26101.42500159  .00000027  00000+0  00000+0 0  9997
2 32951   0.0188 234.1072 0003017 150.9914 204.5348  1.00270771 45187
INTELSAT 25 (IS-25)     
1 33153U 08034A   26101.33689674 -.00000220  00000+0  00000+0 0  9999
2 33153   2.5341  81.1002 0002651 260.3463 307.8985  1.00272943 65023
GALAXY 19 (G-19)        
1 33376U 08045A   26101.43020161 -.00000138  00000+0  00000+0 0  9997
2 33376   0.0159 244.6733 0002996 149.2634 223.5892  1.00272746 64238
FM-5                    
1 35493U 09034A   26101.43228161 -.00000199  00000+0  00000+0 0  9995
2 35493   0.0204 259.5687 0000245 356.2628  13.2915  1.00272923 45979
INTELSAT 14 (IS-14)     
1 36097U 09064A   26101.44042831  .00000000  00000+0  00000+0 0  9998
2 36097   0.0168 215.3655 0002685 183.8118 274.0479  1.00267172 59935
INTELSAT 15 (IS-15)     
1 36106U 09067A   26101.47406078 -.00000184  00000+0  00000+0 0  9996
2 36106   0.0135 130.6722 0002316 251.7744  73.0654  1.00271940 40553
DIRECTV 12              
1 36131U 09075A   26101.35778301 -.00000102  00000+0  00000+0 0  9991
2 36131   0.0086  79.3813 0000518 328.5066 177.7681  1.00271816 45883
INTELSAT 16 (IS-16)     
1 36397U 10006A   26101.50561066 -.00000243  00000+0  00000+0 0  9992
2 36397   0.0398  43.1326 0002150   2.8249 259.5904  1.00271845 58984
XM-5                    
1 37185U 10053A   26101.49789728 -.00000022  00000+0  00000+0 0  9990
2 37185   0.0665 270.0767 0003605 269.7645  83.9355  1.00273023 56816
INTELSAT 17 (IS-17)     
1 37238U 10065B   26101.46244175  .00000000  00000+0  00000+0 0  9996
2 37238   0.0185 209.4700 0002624 184.3577  38.3176  1.00271246 52570
INTELSAT 28 (IS-28)     
1 37392U 11016A   26101.42187344 -.00000222  00000+0  00000+0 0  9991
2 37392   1.6325  83.4147 0004319 305.1024 291.3088  1.00273048 52612
INTELSAT 18 (IS-18)     
1 37834U 11056A   26101.46225367  .00000055  00000+0  00000+0 0  9991
2 37834   0.0218 257.3374 0001637 120.2198 168.5371  1.00274146 53148
INTELSAT 22 (IS-22)     
1 38098U 12011A   26101.46365507 -.00000057  00000+0  00000+0 0  9990
2 38098   0.0242 116.1723 0001750 273.9967  48.5093  1.00271017  6515
INTELSAT 19 (IS-19)     
1 38356U 12030A   26101.51572448  .00000000  00000+0  00000+0 0  9995
2 38356   0.0156 183.5615 0003085 205.8299 162.0051  1.00268807 49784
INTELSAT 20 (IS-20)     
1 38740U 12043A   26101.53421079 -.00000022  00000+0  00000+0 0  9996
2 38740   0.0123 163.8127 0002325  11.5265 285.2090  1.00270766 50077
INTELSAT 21 (IS-21)     
1 38749U 12045A   26101.50916402 -.00000283  00000+0  00000+0 0  9992
2 38749   0.0176 119.5224 0001975 276.5979 288.9137  1.00272423 49853
INTELSAT 23 (IS-23)     
1 38867U 12057A   26101.43886830 -.00000283  00000+0  00000+0 0  9999
2 38867   0.0154 253.5794 0000363 155.2616 255.7889  1.00269217 49282
FM-6                    
1 39360U 13058A   26100.71329503 -.00000012  00000+0  00000+0 0  9999
2 39360   0.0182 133.5467 0002478  63.6518 142.1518  1.00255376 45395
INTELSAT 30 (IS-30)     
1 40271U 14062A   26101.21660243 -.00000150  00000+0  00000+0 0  9996
2 40271   0.0105 218.7865 0001801  45.3573 278.2432  1.00272008  6123
DIRECTV 14              
1 40333U 14078B   26101.50101730  .00000000  00000+0  00000+0 0  9998
2 40333   0.0126 194.6649 0000805 302.4400 143.7401  1.00267747 41378
DIRECTV 15              
1 40663U 15026A   26101.14380214 -.00000101  00000+0  00000+0 0  9997
2 40663   0.0381  74.0663 0000135   1.4927  72.6948  1.00273675 39796
SKY MEXICO-1            
1 40664U 15026B   26101.50509066 -.00000233  00000+0  00000+0 0  9992
2 40664   0.0201 229.1419 0002586 179.5496 254.0659  1.00272375 39780
INTELSAT 34 (IS-34)     
1 40874U 15039A   26101.01059494 -.00000284  00000+0  00000+0 0  9996
2 40874   0.0228 274.3248 0000178 284.2571 308.9788  1.00273725 38957
INTELSAT 31 (IS-31)     
1 41581U 16035A   26100.31156096 -.00000146  00000+0  00000+0 0  9994
2 41581   0.0098 215.4678 0002175   5.3141 354.8841  1.00246497 36005
INTELSAT 36 (IS-36)     
1 41747U 16053A   26101.46296175 -.00000023  00000+0  00000+0 0  9992
2 41747   0.0083 261.3222 0000977  65.4322 108.0968  1.00273251 35280
INTELSAT 32E (IS-32E)   
1 41945U 17007B   26101.36956972 -.00000267  00000+0  00000+0 0  9999
2 41945   0.0200 227.9043 0000518  43.0946  18.4564  1.00271908 33556
INTELSAT 35E (IS-35E)   
1 42818U 17041A   26101.44259500 -.00000236  00000+0  00000+0 0  9995
2 42818   0.0205 218.3372 0002094 165.0063 301.1651  1.00271931 32145
INTELSAT 37E (IS-37E)   
1 42950U 17059A   26101.37450976  .00000000  00000+0  00000+0 0  9991
2 42950   0.0179 191.2671 0002095 213.8880 271.2652  1.00269300 31394
AZERSPACE 2 (IS-38)     
1 43632U 18074A   26101.45828171  .00000138  00000+0  00000+0 0  9994
2 43632   0.0020 183.6689 0001416 207.2767  18.8262  1.00271699 27771
HORIZONS-3E             
1 43633U 18074B   26101.29072530 -.00000029  00000+0  00000+0 0  9997
2 43633   0.0148  35.6197 0000688 296.1646 141.3946  1.00271944 27679
AT&T T-16               
1 44333U 19034A   26101.07290853 -.00000114  00000+0  00000+0 0  9993
2 44333   0.0307  87.5469 0000489  93.6945 303.4465  1.00271212 24967
INTELSAT 39 (IS-39)     
1 44476U 19049B   26101.53299743  .00000035  00000+0  00000+0 0  9996
2 44476   0.0015 172.6173 0000402   3.3360 277.6215  1.00271145 24457
GALAXY 30 (G-30)        
1 46114U 20056C   26101.49590396  .00000000  00000+0  00000+0 0  9992
2 46114   0.0191 206.2016 0002244 184.2516 222.7860  1.00270607 20625
GALAXY 33 (G-33)        
1 54026U 22128A   26101.49434395  .00000080  00000+0  00000+0 0  9999
2 54026   0.0318  66.0766 0001859 317.2252 221.3849  1.00272378 13077
GALAXY 34 (G-34)        
1 54027U 22128B   26101.49512395  .00000000  00000+0  00000+0 0  9999
2 54027   0.0154 197.6414 0001664 182.1947 229.2029  1.00269610 13242
GALAXY 31 (G-31)        
1 54243U 22153A   26101.49668396  .00000015  00000+0  00000+0 0  9996
2 54243   0.0193 134.1457 0001465 259.0274 224.3452  1.00271571  6465
GALAXY 32 (G-32)        
1 54244U 22153B   26101.50266397 -.00000173  00000+0  00000+0 0  9990
2 54244   0.0115 165.0758 0002858 213.1628 271.4441  1.00271315 12473
GALAXY 35 (G-35)        
1 54741U 22170A   26101.50223065 -.00000161  00000+0  00000+0 0  9993
2 54741   0.0111 154.3894 0002112 237.6607 255.3682  1.00271269 12223
GALAXY 36 (G-36)        
1 54742U 22170B   26101.50309733 -.00000184  00000+0  00000+0 0  9996
2 54742   0.0118 199.6692 0002838 222.3017 229.8706  1.00271815 12107
GALAXY 37 (G-37)        
1 57493U 23112A   26101.49555727  .00000050  00000+0  00000+0 0  9994
2 57493   0.0196 232.9644 0002028 151.4779 226.6741  1.00271615  9877
